Zip,City,County
77494,Katy,Fort Bend
77449,Katy,Harris
78660,Pflugerville,Travis
77084,Houston,Harris
79936,El Paso,El Paso
77433,Cypress,Harris
75052,Grand Prairie,Dallas
77573,League City,Galveston
79938,El Paso,El Paso
78245,San Antonio,Bexar
77479,Sugar Land,Fort Bend
77584,Pearland,Brazoria
78521,Brownsville,Cameron
77429,Cypress,Harris
75217,Dallas,Dallas
78613,Cedar Park,Williamson
78542,Edinburg,Hidalgo
78130,New Braunfels,Comal
78666,San Marcos,Hays
77379,Spring,Harris
75035,Frisco,Collin
78641,Leander,Williamson
78577,Pharr,Hidalgo
79912,El Paso,El Paso
77459,Missouri City,Fort Bend
77083,Houston,Harris
76063,Mansfield,Tarrant
78572,Mission,Hidalgo
79928,El Paso,El Paso
75211,Dallas,Dallas
76244,Keller,Tarrant
78254,San Antonio,Bexar
76028,Burleson,Johnson
77407,Richmond,Fort Bend
77845,College Station,Brazos
77450,Katy,Harris
75228,Dallas,Dallas
77095,Houston,Harris
75002,Allen,Collin
76179,Fort Worth,Tarrant
77036,Houston,Harris
78046,Laredo,Webb
75067,Lewisville,Denton
78045,Laredo,Webb
77346,Humble,Harris
75068,Little Elm,Denton
75243,Dallas,Dallas
75043,Garland,Dallas
75150,Mesquite,Dallas
75040,Garland,Dallas
77386,Spring,Montgomery
75098,Wylie,Dallas
75056,The Colony,Denton
78640,Kyle,Hays
75071,Mc Kinney,Collin
78574,Mission,Hidalgo
77072,Houston,Harris
77521,Baytown,Harris
77373,Spring,Harris
77077,Houston,Harris
77375,Tomball,Harris
78745,Austin,Travis
78251,San Antonio,Bexar
77396,Humble,Harris
78501,Mcallen,Hidalgo
78504,Mcallen,Hidalgo
78520,Brownsville,Cameron
75126,Forney,Kaufman
78664,Round Rock,Williamson
78250,San Antonio,Bexar
78665,Sandy,Blanco
78253,San Antonio,Bexar
79924,El Paso,El Paso
76137,Fort Worth,Tarrant
75149,Mesquite,Dallas
77089,Houston,Harris
78249,San Antonio,Bexar
77406,Richmond,Fort Bend
78753,Austin,Travis
78526,Brownsville,Cameron
77070,Houston,Harris
75227,Dallas,Dallas
77015,Houston,Harris
78681,Round Rock,Williamson
76010,Arlington,Tarrant
77469,Richmond,Fort Bend
75061,Irving,Dallas
78240,San Antonio,Bexar
78228,San Antonio,Bexar
78852,Eagle Pass,Maverick
75115,Desoto,Dallas
75216,Dallas,Dallas
77088,Houston,Harris
78550,Harlingen,Cameron
75007,Carrollton,Denton
75072,McKinney,Collin\r
75070,McKinney,Collin
78223,San Antonio,Bexar
77546,Friendswood,Galveston
76133,Fort Worth,Tarrant
77044,Houston,Harris
78748,Austin,Travis
77388,Spring,Harris
76549,Killeen,Bell
77498,Sugar Land,Fort Bend\r
75025,Plano,Collin
77082,Houston,Harris
75080,Richardson,Dallas
75287,Dallas,Dallas
75062,Irving,Dallas
75074,Plano,Collin
78155,Seguin,Guadalupe
77081,Houston,Harris
78537,Donna,Hidalgo
78207,San Antonio,Bexar
76119,Fort Worth,Tarrant
77581,Pearland,Brazoria
78758,Austin,Travis
79907,El Paso,El Paso
78247,San Antonio,Bexar
76542,Killeen,Bell
77040,Houston,Harris
77099,Houston,Harris
76051,Grapevine,Tarrant
77840,College Station,Brazos
78704,Austin,Travis
79424,Lubbock,Lubbock
77511,Alvin,Brazoria
75104,Cedar Hill,Dallas
75060,Irving,Dallas
76116,Fort Worth,Tarrant
77064,Houston,Harris
78109,Converse,Bexar
78586,San Benito,Cameron
75023,Plano,Collin
78744,Austin,Travis
77493,Katy,Harris
75006,Carrollton,Dallas
76131,Fort Worth,Tarrant
77093,Houston,Harris
77060,Houston,Harris
75165,Waxahachie,Ellis
75154,Red Oak,Ellis
78258,San Antonio,Bexar
78840,Del Rio,Val Verde
75028,Flower Mound,Denton
75093,Plano,Collin
77338,Humble,Harris
78041,Laredo,Webb
78227,San Antonio,Bexar
78233,San Antonio,Bexar
78741,Austin,Travis
78414,Corpus Christi,Nueces
77539,Dickinson,Galveston
75044,Garland,Dallas
78201,San Antonio,Bexar
75034,Frisco,Collin
78043,Laredo,Webb
78541,Edinburg,Hidalgo\r
76502,Temple,Bell
76017,Arlington,Tarrant
77080,Houston,Harris
78759,Austin,Travis
75013,Allen,Collin
78108,Cibolo,Guadalupe
75033,Frisco,Denton\r
78582,Rio Grande City,Starr
76210,Denton,Denton
75019,Coppell,Dallas
76108,Fort Worth,Tarrant
77057,Houston,Harris
77055,Houston,Harris
75063,Irving,Dallas
75050,Grand Prairie,Dallas
75024,Plano,Collin
79109,Amarillo,Randall
76227,Aubrey,Denton
78216,San Antonio,Bexar
78230,San Antonio,Bexar
78213,San Antonio,Bexar
77075,Houston,Harris
77339,Humble,Harris
76513,Belton,Bell
78573,Mission,Hidalgo
78209,San Antonio,Bexar
75703,Tyler,Smith
76112,Fort Worth,Tarrant
79927,El Paso,El Paso
77389,Spring,Harris
78221,San Antonio,Bexar
79423,Lubbock,Lubbock
77471,Rosenberg,Fort Bend
78610,Buda,Hays
78415,Corpus Christi,Nueces
78552,Harlingen,Cameron
77382,Spring,Montgomery
77583,Rosharon,Brazoria
78412,Corpus Christi,Nueces
77705,Beaumont,Jefferson
77042,Houston,Harris
76065,Midlothian,Ellis
77901,Victoria,Victoria
79762,Odessa,Ector
75220,Dallas,Dallas
76039,Euless,Tarrant
77007,Houston,Harris
76248,Keller,Tarrant
76262,Roanoke,Denton
77065,Houston,Harris
79705,Midland,Midland
78028,Kerrville,Kerr
77066,Houston,Harris
76522,Copperas Cove,Coryell
78589,San Juan,Hidalgo
77063,Houston,Harris
78006,Boerne,Kendall
79107,Amarillo,Potter
75051,Grand Prairie,Dallas
78154,Schertz,Guadalupe
77049,Houston,Harris
76706,Waco,Mclennan
77090,Houston,Harris
78628,Georgetown,Williamson
75087,Rockwall,Rockwall
75077,Lewisville,Denton
77074,Houston,Harris
79925,El Paso,El Paso
77034,Houston,Harris
77073,Houston,Harris
75231,Dallas,Dallas
78237,San Antonio,Bexar
77377,Tomball,Harris
77489,Missouri City,Fort Bend
76123,Fort Worth,Tarrant
77320,Huntsville,Walker
78634,Hutto,Williamson
77354,Magnolia,Montgomery
75206,Dallas,Dallas
75042,Garland,Dallas
77642,Port Arthur,Jefferson
77024,Houston,Harris
77502,Pasadena,Harris
77009,Houston,Harris
75069,Mc Kinney,Collin
77014,Houston,Harris
76106,Fort Worth,Tarrant
77535,Dayton,Liberty
77571,La Porte,Harris
78626,Georgetown,Williamson
77506,Pasadena,Harris
78040,Laredo,Webb
76001,Arlington,Tarrant
77008,Houston,Harris
78413,Corpus Christi,Nueces
76180,North Richland Hills,Tarrant
78596,Weslaco,Hidalgo
78232,San Antonio,Bexar
77365,Porter,Montgomery
77087,Houston,Harris
77304,Conroe,Montgomery
75081,Richardson,Dallas
78539,Edinburg,Hidalgo
79915,El Paso,El Paso
78132,New Braunfels,Comal
75224,Dallas,Dallas
78218,San Antonio,Bexar
75248,Dallas,Dallas
78244,San Antonio,Bexar
75075,Plano,Collin
79707,Midland,Midland
76904,San Angelo,Tom Green
78723,Austin,Travis
77381,Spring,Montgomery
77520,Baytown,Harris
75078,Prosper,Collin
78749,Austin,Travis
79763,Odessa,Ector
77092,Houston,Harris
76021,Bedford,Tarrant
77035,Houston,Harris
75189,Royse City,Rockwall
75089,Rowlett,Dallas
75501,Texarkana,Bowie
75032,Rockwall,Rockwall
79416,Lubbock,Lubbock
76226,Argyle,Denton
75904,Lufkin,Angelina
77079,Houston,Harris
78229,San Antonio,Bexar
78599,Weslaco,Hidalgo
76013,Arlington,Tarrant
76002,Arlington,Tarrant
75701,Tyler,Smith
77004,Houston,Harris
78717,Austin,Williamson
78242,San Antonio,Bexar
77351,Livingston,Polk
78260,San Antonio,Bexar
78210,San Antonio,Bexar
78516,Alamo,Hidalgo
77477,Stafford,Fort Bend
75605,Longview,Gregg
77017,Houston,Harris
75214,Dallas,Dallas
75232,Dallas,Dallas
76110,Fort Worth,Tarrant
77515,Angleton,Brazoria
77067,Houston,Harris
77301,Conroe,Montgomery
76543,Killeen,Bell
77536,Deer Park,Harris
77590,Texas City,Galveston
77803,Bryan,Brazos
78570,Mercedes,Hidalgo
77047,Houston,Harris
77076,Houston,Harris
78217,San Antonio,Bexar
77041,Houston,Harris
75229,Dallas,Dallas
77340,Huntsville,Walker
77096,Houston,Harris
75234,Dallas,Dallas
78602,Bastrop,Bastrop
77045,Houston,Harris
78705,Austin,Travis
76014,Arlington,Tarrant
76020,Azle,Tarrant
76117,Haltom City,Tarrant
79720,Big Spring,Howard
76901,San Angelo,Tom Green
77038,Houston,Harris
79904,El Paso,El Paso
75038,Irving,Dallas
75238,Dallas,Dallas
76705,Waco,Mclennan
75204,Dallas,Dallas
76548,Harker Heights,Bell
75241,Dallas,Dallas
76140,Fort Worth,Tarrant
79761,Odessa,Ector
76053,Hurst,Tarrant
75041,Garland,Dallas
76092,Southlake,Tarrant
77355,Magnolia,Montgomery
79706,Midland,Midland
76016,Arlington,Tarrant
78653,Manor,Travis
75036,Frisco,Denton\r
76182,North Richland Hills,Tarrant
78729,Austin,Williamson
77530,Channelview,Harris
76040,Euless,Tarrant
77053,Houston,Harris
78211,San Antonio,Bexar
75110,Corsicana,Navarro
78239,San Antonio,Bexar
75604,Longview,Gregg
79701,Midland,Midland
77566,Lake Jackson,Brazoria
76903,San Angelo,Tom Green
77016,Houston,Harris
75010,Carrollton,Denton
77532,Crosby,Harris
77086,Houston,Harris
78418,Corpus Christi,Nueces
77091,Houston,Harris
77357,New Caney,Montgomery
78727,Austin,Travis
75208,Dallas,Dallas
76107,Fort Worth,Tarrant
76401,Stephenville,Erath
77327,Cleveland,Liberty
78754,Austin,Travis
76036,Crowley,Tarrant
78750,Austin,Travis
77025,Houston,Harris
77630,Orange,Orange
78363,Kingsville,Kleberg
76240,Gainesville,Cooke
76134,Fort Worth,Tarrant
77706,Beaumont,Jefferson
77316,Montgomery,Montgomery
76049,Granbury,Hood
77380,Spring,Montgomery
77904,Victoria,Victoria
75901,Lufkin,Angelina
76087,Weatherford,Parker
75119,Ennis,Ellis
76012,Arlington,Tarrant
78023,Helotes,Bexar
78617,Del Valle,Travis
77356,Montgomery,Montgomery
77033,Houston,Harris
79605,Abilene,Taylor
79932,El Paso,El Paso
76018,Arlington,Tarrant
77833,Brenham,Washington
76201,Denton,Denton
77018,Houston,Harris
77005,Houston,Harris
75702,Tyler,Smith
78746,Austin,Travis
76114,Fort Worth,Tarrant
77023,Houston,Harris
79106,Amarillo,Potter
78410,Corpus Christi,Nueces
77039,Houston,Harris
75503,Texarkana,Bowie
75181,Mesquite,Dallas
76712,Woodway,Mclennan
75252,Dallas,Dallas
77345,Humble,Harris
78332,Alice,Jim Wells
78102,Beeville,Bee
77071,Houston,Harris
77598,Webster,Harris
79601,Abilene,Taylor
78212,San Antonio,Bexar
75048,Sachse,Dallas
79602,Abilene,Taylor
79934,El Paso,El Paso
79606,Abilene,Taylor
78738,Austin,Travis
75082,Richardson,Dallas
75092,Sherman,Grayson
79930,El Paso,El Paso
75455,Mount Pleasant,Titus
75212,Dallas,Dallas
76209,Denton,Denton
76208,Denton,Denton
75180,Mesquite,Dallas
75022,Flower Mound,Denton
78633,Georgetown,Williamson\r
78731,Austin,Travis
77022,Houston,Harris
75240,Dallas,Dallas
76132,Fort Worth,Tarrant
77523,Baytown,Chambers\r
75088,Rowlett,Dallas
75230,Dallas,Dallas
77021,Houston,Harris
77020,Houston,Harris
76052,Haslet,Tarrant
76033,Cleburne,Johnson
76708,Waco,Mclennan
79118,Amarillo,Randall
78724,Austin,Travis
79764,Odessa,Ector
79072,Plainview,Hale
77662,Vidor,Orange
77545,Fresno,Fort Bend
77504,Pasadena,Harris
78238,San Antonio,Bexar
76034,Colleyville,Tarrant
78259,San Antonio,Bexar
76048,Granbury,Hood
75766,Jacksonville,Cherokee
78757,Austin,Travis
77061,Houston,Harris
78728,Austin,Travis
75482,Sulphur Springs,Hopkins
75662,Kilgore,Gregg
77043,Houston,Harris
76801,Brownwood,Brown
76126,Fort Worth,Tarrant
78621,Elgin,Bastrop
75146,Lancaster,Dallas
76544,Killeen,Bell
75090,Sherman,Grayson
75407,Princeton,Collin
78702,Austin,Travis
75205,Dallas,Dallas
78737,Austin,Travis
77385,Conroe,Montgomery
77062,Houston,Harris
75009,Celina,Collin
76109,Fort Worth,Tarrant
77503,Pasadena,Harris
76148,Fort Worth,Tarrant
77802,Bryan,Brazos
78566,Los Fresnos,Cameron
76006,Arlington,Tarrant
75160,Terrell,Kaufman
77414,Bay City,Matagorda
75460,Paris,Lamar
76105,Fort Worth,Tarrant
78411,Corpus Christi,Nueces
75219,Dallas,Dallas
75253,Dallas,Dallas
75254,Dallas,Dallas
78380,Robstown,Nueces
78261,San Antonio,Bexar
79603,Abilene,Taylor
76504,Temple,Bell
77054,Houston,Harris
77551,Galveston,Galveston
78222,San Antonio,Bexar
77578,Manvel,Brazoria
76710,Waco,Mclennan
77586,Seabrook,Harris
75094,Plano,Collin
77478,Sugar Land,Fort Bend
79413,Lubbock,Lubbock
75020,Denison,Grayson
78624,Fredericksburg,Gillespie
78214,San Antonio,Bexar
78114,Floresville,Wilson
75142,Kaufman,Kaufman
77006,Houston,Harris
77441,Fulshear,Fort Bend
78148,Universal City,Bexar
77505,Pasadena,Harris
75159,Seagoville,Dallas
77303,Conroe,Montgomery
79015,Canyon,Randall
77019,Houston,Harris
77550,Galveston,Galveston
79703,Midland,Midland
78703,Austin,Travis
76008,Aledo,Parker
76082,Springtown,Parker
77056,Houston,Harris
75039,Irving,Dallas
79905,El Paso,El Paso
75803,Palestine,Anderson
77627,Nederland,Jefferson
76115,Fort Worth,Tarrant
75225,Dallas,Dallas
76011,Arlington,Tarrant
77632,Orange,Orange
78734,Austin,Travis
76111,Fort Worth,Tarrant
77657,Lumberton,Hardin
78801,Uvalde,Uvalde
77026,Houston,Harris
75218,Dallas,Dallas
75771,Lindale,Smith
77384,Conroe,Montgomery
79407,Lubbock,Lubbock
78752,Austin,Travis
75116,Duncanville,Dallas
75401,Greenville,Hunt
76086,Weatherford,Parker
75602,Longview,Gregg
78015,Boerne,Bexar
78133,Canyon Lake,Comal
76009,Alvarado,Johnson
76058,Joshua,Johnson
78747,Austin,Travis
76120,Fort Worth,Tarrant
78612,Cedar Creek,Bastrop
78503,Mcallen,Hidalgo
75409,Anna,Collin
76067,Mineral Wells,Palo Pinto
79119,Amarillo,Randall
76205,Denton,Denton
78224,San Antonio,Bexar
79765,Odessa,Ector
78644,Lockhart,Caldwell
76308,Wichita Falls,Wichita
79902,El Paso,El Paso
78739,Austin,Travis
75964,Nacogdoches,Nacogdoches
77568,La Marque,Galveston
78374,Portland,San Patricio
78732,Austin,Travis
79065,Pampa,Gray
77028,Houston,Harris
77048,Houston,Harris
77027,Houston,Harris
76528,Gatesville,Coryell
75137,Duncanville,Dallas
75134,Lancaster,Dallas
76177,Fort Worth,Tarrant
77013,Houston,Harris
76310,Wichita Falls,Wichita
79110,Amarillo,Randall
77302,Conroe,Montgomery
78735,Austin,Travis
76234,Decatur,Wise
76574,Taylor,Williamson
77051,Houston,Harris
79935,El Paso,El Paso
77069,Houston,Harris
75235,Dallas,Dallas
76031,Cleburne,Johnson
76104,Fort Worth,Tarrant
76135,Fort Worth,Tarrant
77002,Houston,Harris
75670,Marshall,Harrison
78654,Marble Falls,Burnet
75237,Dallas,Dallas
78382,Rockport,Aransas
79045,Hereford,Deaf Smith
78620,Dripping Springs,Hays
77437,El Campo,Wharton
76541,Killeen,Bell
75402,Greenville,Hunt
77318,Willis,Montgomery
78642,Liberty Hill,Williamson
77868,Navasota,Grimes
77328,Cleveland,Liberty
75965,Nacogdoches,Nacogdoches
77707,Beaumont,Jefferson
79714,Andrews,Andrews
77447,Hockley,Harris
78584,Roma,Starr
77037,Houston,Harris
79414,Lubbock,Lubbock
77059,Houston,Harris
77541,Freeport,Brazoria
75215,Dallas,Dallas
77012,Houston,Harris
76266,Sanger,Denton
77058,Houston,Harris
75249,Dallas,Dallas
76015,Arlington,Tarrant
77640,Port Arthur,Jefferson
77378,Willis,Montgomery
75236,Dallas,Dallas
78255,San Antonio,Bexar
75201,Dallas,Dallas
76103,Fort Worth,Tarrant
77401,Bellaire,Harris
76501,Temple,Bell
78070,Spring Branch,Comal
77085,Houston,Harris
75751,Athens,Henderson
77619,Groves,Jefferson
77011,Houston,Harris
79415,Lubbock,Lubbock
75057,Lewisville,Denton
77656,Silsbee,Hardin
75233,Dallas,Dallas
77031,Houston,Harris
75672,Marshall,Harrison
76118,Fort Worth,Tarrant
77306,Conroe,Montgomery
79360,Seminole,Gaines
77979,Port Lavaca,Calhoun
77905,Victoria,Victoria
76247,Justin,Denton
75156,Gun Barrel City,Henderson\r
75203,Dallas,Dallas
76707,Waco,Mclennan
75474,Quinlan,Hunt
77587,South Houston,Harris
78219,San Antonio,Bexar
75001,Addison,Dallas
77029,Houston,Harris
78064,Pleasanton,Atascosa
79403,Lubbock,Lubbock
76207,Denton,Denton
77531,Clute,Brazoria
75103,Canton,Van Zandt
79029,Dumas,Moore
78751,Austin,Travis
79903,El Paso,El Paso
75054,Grand Prairie,Dallas
79549,Snyder,Scurry
78220,San Antonio,Bexar
77575,Liberty,Liberty
79336,Levelland,Hockley
75801,Palestine,Anderson
79412,Lubbock,Lubbock
76643,Hewitt,Mclennan
75601,Longview,Gregg
78404,Corpus Christi,Nueces
77098,Houston,Harris
75454,Melissa,Collin
75143,Kemp,Kaufman
78676,Wimberley,Hays
76301,Wichita Falls,Wichita
78416,Corpus Christi,Nueces
75951,Jasper,Jasper
77591,Texas City,Galveston
75961,Nacogdoches,Nacogdoches
78252,San Antonio,Bexar
76306,Wichita Falls,Wichita
75418,Bonham,Fannin
77488,Wharton,Wharton
77808,Bryan,Brazos
76088,Weatherford,Parker
75762,Flint,Smith
77445,Hempstead,Waller
77801,Bryan,Brazos
78163,Bulverde,Comal
75169,Wills Point,Van Zandt
77423,Brookshire,Waller
75707,Tyler,Smith
78645,Leander,Travis
75223,Dallas,Dallas
76022,Bedford,Tarrant
75209,Dallas,Dallas
78405,Corpus Christi,Nueces
77713,Beaumont,Jefferson
78225,San Antonio,Bexar
77372,Splendora,Montgomery
75791,Whitehouse,Smith
76309,Wichita Falls,Wichita
76164,Fort Worth,Tarrant
77474,Sealy,Austin
77422,Brazoria,Brazoria
75652,Henderson,Rusk
78557,Hidalgo,Hidalgo
79007,Borger,Hutchinson
77032,Houston,Harris
79772,Pecos,Reeves
78248,San Antonio,Bexar
76550,Lampasas,Lampasas
77078,Houston,Harris
78121,La Vernia,Wilson
75757,Bullard,Smith
77651,Port Neches,Jefferson
75773,Mineola,Wood
76367,Iowa Park,Wichita
78580,Raymondville,Willacy
78726,Austin,Travis
75686,Pittsburg,Camp
78861,Hondo,Medina
79735,Fort Stockton,Pecos
78076,Zapata,Zapata
79849,San Elizario,El Paso
77510,Santa Fe,Galveston
76450,Graham,Young
76905,San Angelo,Tom Green
77708,Beaumont,Jefferson
75654,Henderson,Rusk
78611,Burnet,Burnet
77701,Beaumont,Jefferson
77484,Waller,Waller
78264,San Antonio,Bexar
78559,La Feria,Cameron
75244,Dallas,Dallas
75633,Carthage,Panola
78576,Penitas,Hidalgo
79556,Sweetwater,Nolan
77807,Bryan,Brazos
75644,Gilmer,Upshur
75065,Lake Dallas,Denton
75935,Center,Shelby
75647,Gladewater,Gregg
78336,Aransas Pass,San Patricio
75167,Waxahachie,Ellis
76384,Vernon,Wilbarger
77336,Huffman,Harris
79835,Canutillo,El Paso
77703,Beaumont,Jefferson
75979,Woodville,Tyler
78629,Gonzales,Gonzales
76054,Hurst,Tarrant
78204,San Antonio,Bexar
76354,Burkburnett,Wichita
77461,Needville,Fort Bend
77030,Houston,Harris
79331,Lamesa,Dawson
76657,Mc Gregor,Mclennan
75835,Crockett,Houston
77836,Caldwell,Burleson
78256,San Antonio,Bexar
76302,Wichita Falls,Wichita
76426,Bridgeport,Wise
75462,Paris,Lamar
75570,New Boston,Bowie
76085,Weatherford,Parker
77094,Houston,Harris
79022,Dalhart,Dallam
77995,Yoakum,Lavaca
75551,Atlanta,Cass
77068,Houston,Harris
75428,Commerce,Hunt
79124,Amarillo,Potter
78065,Poteet,Atascosa
75785,Rusk,Cherokee
77954,Cuero,De Witt
78362,Ingleside,San Patricio
75494,Winnsboro,Wood
78061,Pearsall,Frio
76645,Hillsboro,Hill
79103,Amarillo,Potter
79766,Odessa,Ector
78669,Spicewood,Travis
78721,Austin,Travis
76102,Fort Worth,Tarrant
79410,Lubbock,Lubbock
78945,La Grange,Fayette
77518,Bacliff,Galveston
78538,Edcouch,Hidalgo
78578,Port Isabel,Cameron
79108,Amarillo,Potter
75442,Farmersville,Collin
75708,Tyler,Smith
78202,San Antonio,Bexar
76667,Mexia,Limestone
76084,Venus,Johnson
78073,Von Ormy,Bexar
78408,Corpus Christi,Nueces
77562,Highlands,Harris
76537,Jarrell,Williamson
75862,Trinity,Trinity
76711,Waco,Mclennan
77563,Hitchcock,Galveston
77418,Bellville,Austin
79316,Brownfield,Terry
78016,Devine,Medina
75706,Tyler,Smith
75645,Gilmer,Upshur
78231,San Antonio,Bexar
78112,Elmendorf,Bexar
77003,Houston,Harris
76273,Whitesboro,Grayson
76230,Bowie,Montague
79102,Amarillo,Potter
77611,Bridge City,Orange
79070,Perryton,Ochiltree
78387,Sinton,San Patricio
75758,Chandler,Henderson
77547,Galena Park,Harris
78957,Smithville,Bastrop
78942,Giddings,Lee
75704,Tyler,Smith
78701,Austin,Travis
76692,Whitney,Hill
78733,Austin,Travis
77612,Buna,Jasper
78736,Austin,Travis
79756,Monahans,Ward
78730,Austin,Travis
76571,Salado,Bell
79382,Wolfforth,Lubbock
75021,Denison,Grayson
78003,Bandera,Bandera
78756,Austin,Travis
79404,Lubbock,Lubbock
78063,Pipe Creek,Bandera
75210,Dallas,Dallas
75650,Hallsville,Harrison
76249,Krum,Denton
75495,Van Alstyne,Grayson
78257,San Antonio,Bexar
78725,Austin,Travis
78101,Adkins,Bexar
79401,Lubbock,Lubbock
77554,Galveston,Galveston
75789,Troup,Smith
76446,Dublin,Erath
76567,Rockdale,Milam
78002,Atascosa,Bexar
76078,Rhome,Wise
77957,Edna,Jackson
76539,Kempner,Lampasas
76655,Lorena,Mclennan
75076,Pottsboro,Grayson
78368,Mathis,San Patricio
76424,Breckenridge,Stephens
78616,Dale,Caldwell
78236,San Antonio,Bexar
79901,El Paso,El Paso
75941,Diboll,Angelina
75949,Huntington,Angelina
78543,Elsa,Hidalgo
75783,Quitman,Wood
75173,Nevada,Collin
75956,Kirbyville,Jasper
77480,Sweeny,Brazoria
76060,Kennedale,Tarrant
75207,Dallas,Dallas
75135,Caddo Mills,Hunt
79836,Clint,El Paso
75161,Terrell,Kaufman
76311,Sheppard Afb,Wichita
78639,Kingsland,Llano
77843,College Station,Brazos
75754,Ben Wheeler,Van Zandt
79830,Alpine,Brewster
78009,Castroville,Medina
77964,Hallettsville,Lavaca
78648,Luling,Caldwell
78839,Crystal City,Zavala
76704,Waco,Mclennan
77625,Kountze,Hardin
79512,Colorado City,Mitchell
75765,Hawkins,Wood
76442,Comanche,Comanche
76520,Cameron,Milam
79510,Clyde,Callahan
79911,El Paso,El Paso
75182,Sunnyvale,Dallas
79364,Slaton,Lubbock
75684,Overton,Rusk
75752,Athens,Henderson
76661,Marlin,Falls
77859,Hearne,Robertson
75657,Jefferson,Marion
75140,Grand Saline,Van Zandt
79406,Lubbock,Lubbock
78834,Carrizo Springs,Dimmit
77371,Shepherd,San Jacinto
78124,Marion,Guadalupe
78595,Sullivan City,Hidalgo
77465,Palacios,Matagorda
77486,West Columbia,Brazoria
79922,El Paso,El Paso
76634,Clifton,Bosque
76023,Boyd,Wise
75125,Ferris,Ellis
77864,Madisonville,Madison
77331,Coldspring,San Jacinto
78226,San Antonio,Bexar
78355,Falfurrias,Brooks
76043,Glen Rose,Somervell
76579,Troy,Bell
78119,Kenedy,Karnes
76258,Pilot Point,Denton
79323,Denver City,Yoakum
78266,San Antonio,Comal
78605,Bertram,Burnet
79347,Muleshoe,Bailey
75147,Mabank,Kaufman
78606,Blanco,Blanco
79201,Childress,Childress
78657,Marble Falls,Burnet
76050,Grandview,Johnson
75603,Longview,Gregg
79104,Amarillo,Potter
79339,Littlefield,Lamb
75440,Emory,Rains
79821,Anthony,El Paso
78026,Jourdanton,Atascosa
78934,Columbus,Colorado
79411,Lubbock,Lubbock
78643,Llano,Llano
79745,Kermit,Winkler
77565,Kemah,Galveston
78069,Somerset,Bexar
76825,Brady,Mcculloch
75763,Frankston,Anderson
75840,Fairfield,Freestone
77665,Winnie,Chambers
76044,Godley,Johnson
76073,Paradise,Wise
75114,Crandall,Kaufman
76155,Fort Worth,Tarrant
77362,Pinehurst,Montgomery
76691,West,Mclennan
75693,White Oak,Gregg
76633,China Spring,Mclennan
78619,Driftwood,Hays
76559,Nolanville,Bell
75860,Teague,Freestone
75148,Malakoff,Henderson
77659,Sour Lake,Hardin
75457,Mount Vernon,Franklin
75972,San Augustine,San Augustine
77517,Santa Fe,Galveston
76557,Moody,Mclennan
78203,San Antonio,Bexar
75839,Elkhart,Anderson
78052,Lytle,Atascosa
78583,Rio Hondo,Cameron
78722,Austin,Travis
76458,Jacksboro,Jack
76642,Groesbeck,Limestone
79906,El Paso,El Paso
79363,Shallowater,Lubbock
77514,Anahuac,Chambers
77360,Onalaska,Polk
75640,Diana,Upshur
77050,Houston,Harris
78390,Taft,San Patricio
76802,Early,Brown
75459,Howe,Grayson
79536,Merkel,Taylor
78059,Natalia,Medina
79838,Fabens,El Paso
75152,Palmer,Ellis
79356,Post,Garza
75948,Hemphill,Sabine
76437,Cisco,Eastland
75166,Lavon,Collin
76255,Nocona,Montague
75158,Scurry,Kaufman
76259,Ponder,Denton
75939,Corrigan,Polk
78956,Schulenburg,Fayette
79035,Friona,Parmer
75559,De Kalb,Bowie
79121,Amarillo,Randall
78017,Dilley,Frio
78013,Comfort,Kendall
77358,New Waverly,Walker
78384,San Diego,Duval
78372,Orange Grove,Jim Wells
75172,Wilmer,Dallas
78160,Stockdale,Wilson
78014,Cotulla,La Salle
78025,Ingram,Kerr
79088,Tulia,Swisher
75124,Eustace,Henderson
77963,Goliad,Goliad
77879,Somerville,Burleson
75226,Dallas,Dallas
77446,Prairie View,Waller
78575,Olmito,Cameron
78383,Sandia,Jim Wells
79036,Fritch,Hutchinson
76066,Millsap,Parker
78652,Manchaca,Travis
75638,Daingerfield,Morris
76834,Coleman,Coleman
76448,Eastland,Eastland
76059,Keene,Johnson
75831,Buffalo,Leon
75851,Lovelady,Houston
75491,Whitewright,Grayson
76462,Lipan,Hood
78361,Hebbronville,Jim Hogg
78593,Santa Rosa,Cameron
78370,Odem,San Patricio
78263,San Antonio,Bexar
78962,Weimar,Colorado
76272,Valley View,Cooke
79782,Stanton,Martin
75656,Hughes Springs,Cass
75117,Edgewood,Van Zandt
79908,El Paso,El Paso
75692,Waskom,Harrison
75452,Leonard,Fannin
79027,Dimmitt,Castro
78401,Corpus Christi,Nueces
78234,San Antonio,Bexar
76305,Wichita Falls,Wichita
78022,George West,Live Oak
75561,Hooks,Bowie
75844,Grapeland,Houston
75709,Tyler,Smith
78343,Bishop,Nueces
78947,Lexington,Lee
75755,Big Sandy,Upshur
77856,Franklin,Robertson
79916,El Paso,El Paso
76531,Hamilton,Hamilton
76365,Henrietta,Clay
79731,Crane,Crane
75410,Alba,Wood
75691,Tatum,Rusk
75966,Newton,Newton
77204,Houston,Harris
76821,Ballinger,Runnels
78560,La Joya,Hidalgo
75472,Point,Rains
75756,Brownsboro,Henderson
78417,Corpus Christi,Nueces
76431,Chico,Wise
78569,Lyford,Willacy
76877,San Saba,San Saba
75109,Corsicana,Navarro
78118,Karnes City,Karnes
76527,Florence,Williamson
76071,Newark,Wise
76457,Hico,Hamilton
78208,San Antonio,Bexar
79562,Tuscola,Taylor
77984,Shiner,Lavaca
77434,Eagle Lake,Colorado
75567,Maud,Bowie
75144,Kerens,Navarro
76664,Mart,Mclennan
75683,Ore City,Upshur
76651,Italy,Ellis
76005,Arlington,Tarrant
78010,Center Point,Kerr
77485,Wallis,Austin
79607,Dyess Afb,Taylor
76689,Valley Mills,Bosque
75975,Timpson,Shelby
75141,Hutchins,Dallas
79845,Presidio,Presidio
75563,Linden,Cass
76524,Eddy,Mclennan
75251,Dallas,Dallas
75884,Tennessee Colony,Anderson
75426,Clarksville,Red River
75473,Powderly,Lamar
79311,Abernathy,Hale
78071,Three Rivers,Live Oak
77435,East Bernard,Wharton
75969,Pollok,Angelina
75946,Garrison,Nacogdoches
78655,Martindale,Caldwell
75424,Blue Ridge,Collin
75750,Arp,Smith
76849,Junction,Kimble
75497,Yantis,Wood
78140,Nixon,Gonzales
76374,Olney,Young
78164,Yorktown,De Witt
77835,Burton,Washington
75496,Wolfe City,Hunt
76856,Mason,Mason
75446,Honey Grove,Fannin
76233,Collinsville,Grayson
76380,Seymour,Baylor
79359,Seagraves,Gaines
75569,Nash,Bowie
76444,De Leon,Comanche
75572,Queen City,Cass
76950,Sonora,Sutton
75925,Alto,Cherokee
76470,Ranger,Eastland
79521,Haskell,Haskell
76476,Tolar,Hood
75790,Van,Van Zandt
75058,Gunter,Grayson
77702,Beaumont,Jefferson
76932,Big Lake,Reagan
78636,Johnson City,Blanco
75852,Midway,Madison
76597,Gatesville,Coryell
75974,Tenaha,Shelby
79014,Canadian,Hemphill
79081,Spearman,Hansford
78377,Refugio,Refugio
78373,Port Aransas,Nueces
77962,Ganado,Jackson
79235,Floydada,Floyd
79553,Stamford,Jones
76055,Itasca,Hill
79068,Panhandle,Carson
76844,Goldthwaite,Mills
76093,Rio Vista,Johnson
78832,Brackettville,Kinney
76225,Alvord,Wise
75886,Tennessee Colony,Anderson
76682,Riesel,Mclennan
78579,Progreso,Hidalgo
76569,Rogers,Bell
75155,Rice,Ellis
78215,San Antonio,Bexar
75962,Nacogdoches,Nacogdoches
79504,Baird,Callahan
75433,Cumby,Hopkins
76640,Elm Mott,Mclennan
77831,Bedias,Grimes
75792,Winona,Smith
77534,Danbury,Brazoria
77830,Anderson,Grimes
76577,Thorndale,Milam
79567,Winters,Runnels
76638,Crawford,Mclennan
79329,Idalou,Lubbock
78941,Flatonia,Fayette
77968,Inez,Victoria
75423,Celeste,Hunt
75432,Cooper,Delta
79013,Cactus,Moore
77363,Plantersville,Grimes
79086,Sunray,Moore
78631,Harper,Gillespie
78375,Premont,Jim Wells
75414,Bells,Grayson
76798,Waco,Mclennan
76534,Holland,Bell
78562,La Villa,Hidalgo
77417,Beasley,Fort Bend
75490,Trenton,Fannin
75416,Blossom,Lamar
75568,Naples,Morris
76943,Ozona,Crockett
75422,Campbell,Hunt
75855,Oakwood,Leon
79853,Tornillo,El Paso
78659,Paige,Bastrop
76035,Cresson,Hood
76665,Meridian,Bosque
76487,Poolville,Parker
79041,Hale Center,Hale
78357,Freer,Duval
79373,Tahoka,Lynn
75973,Shelbyville,Shelby
76360,Electra,Wichita
77335,Goodrich,Polk
75846,Jewett,Leon
79252,Quanah,Hardeman
78113,Falls City,Karnes
77871,Normangee,Leon
75453,Lone Oak,Hunt
78039,La Coste,Medina
75705,Tyler,Smith
79095,Wellington,Collingsworth
76823,Bangs,Brown
75631,Beckville,Panola
79501,Anson,Jones
79226,Clarendon,Donley
76656,Lott,Falls
76570,Rosebud,Falls
78656,Maxwell,Caldwell
75681,Mount Enterprise,Rusk
76648,Hubbard,Hill
78662,Red Rock,Bastrop
75954,Joaquin,Shelby
76936,Eldorado,Schleicher
78650,Mc Dade,Bastrop
78123,Mc Queeney,Guadalupe
75639,De Berry,Panola
76624,Axtell,Mclennan
75770,Larue,Henderson
79079,Shamrock,Wheeler
76511,Bartlett,Bell
75661,Karnack,Harrison
79525,Hawley,Jones
75760,Cushing,Nacogdoches
75417,Bogata,Red River
79843,Marfa,Presidio
75163,Trinidad,Henderson
75778,Murchison,Henderson
79064,Olton,Lamb
75486,Sumner,Lamar
76252,Muenster,Cooke
77872,North Zulch,Madison
75980,Zavalla,Angelina
79520,Hamlin,Jones
78152,Saint Hedwig,Bexar
77664,Warren,Tyler
75571,Omaha,Morris
77420,Boling,Wharton
78235,San Antonio,Bexar
76554,Little River,Bell
76430,Albany,Shackelford
76449,Graford,Palo Pinto
79101,Amarillo,Potter
78406,Corpus Christi,Nueces
76908,Goodfellow Afb,Tom Green
78409,Corpus Christi,Nueces
75246,Dallas,Dallas
75630,Avinger,Cass
79245,Memphis,Hall
79758,Gardendale,Ector
76530,Granger,Williamson
77865,Marquez,Leon
75668,Lone Star,Morris
77364,Pointblank,San Jacinto
77983,Seadrift,Calhoun
78056,Mico,Medina
75968,Pineland,Sabine
79040,Gruver,Hansford
78359,Gregory,San Patricio
75833,Centerville,Leon
79325,Farwell,Parmer
75938,Colmesneil,Tyler
75202,Dallas,Dallas
78393,Woodsboro,Refugio
77861,Iola,Grimes
76693,Wortham,Freestone
78950,New Ulm,Austin
78940,Fayetteville,Fayette
75436,Detroit,Red River
78597,South Padre Island,Cameron
75643,Gary,Panola
79855,Van Horn,Culberson
75859,Streetman,Freestone
75479,Savoy,Fannin
79083,Stinnett,Hutchinson
75845,Groveton,Trinity
75651,Harleton,Harrison
77650,Port Bolivar,Galveston
75554,Avery,Red River
79346,Morton,Cochran
76861,Miles,Runnels
79111,Amarillo,Potter
76366,Holliday,Archer
78407,Corpus Christi,Nueces
79241,Lockney,Floyd
76443,Cross Plains,Callahan
77426,Chappell Hill,Washington
79752,Mc Camey,Upton
77455,Louise,Wharton
76837,Eden,Concho
76064,Maypearl,Ellis
79096,Wheeler,Wheeler
76857,May,Brown
78638,Kingsbury,Guadalupe
78609,Buchanan Dam,Llano
75558,Cookville,Titus
76701,Waco,Mclennan
79357,Ralls,Crosby
78005,Bigfoot,Frio
76433,Bluff Dale,Erath
75471,Pickton,Hopkins
79734,Fort Davis,Jeff Davis
76935,Christoval,Tom Green
76687,Thornton,Limestone
79019,Claude,Armstrong
78055,Medina,Bandera
76351,Archer City,Archer
78389,Skidmore,Bee
76271,Tioga,Grayson
76556,Milano,Milam
78719,Austin,Travis
76454,Gorman,Eastland
79545,Roscoe,Nolan
75127,Fruitvale,Van Zandt
79009,Bovina,Parmer
75931,Brookeland,Sabine
77880,Washington,Washington
76670,Milford,Ellis
78019,Encinal,La Salle
79322,Crosbyton,Crosby
75102,Barry,Navarro
75480,Scroggins,Franklin
76127,Naval Air Station/ Jrb,Tarrant
76629,Bremond,Robertson
77430,Damon,Brazoria
76859,Menard,Menard
76641,Frost,Navarro
75431,Como,Hopkins
77564,Hull,Liberty
76622,Aquilla,Hill
76245,Gordonville,Grayson
75861,Tennessee Colony,Anderson
76945,Robert Lee,Coke
76129,Fort Worth,Tarrant
76270,Sunset,Montague
79343,Lorenzo,Crosby
78147,Poth,Wilson
77622,Hamshire,Jefferson
76630,Bruceville,Mclennan
76599,Gatesville,Coryell
78615,Coupland,Williamson
79005,Booker,Lipscomb
79043,Hart,Castro
75930,Bronson,Sabine
76878,Santa Anna,Coleman
78011,Charlotte,Atascosa
79546,Rotan,Fisher
76639,Dawson,Navarro
75847,Kennard,Houston
76671,Morgan,Bosque
76632,Chilton,Falls
75933,Call,Newton
79355,Plains,Yoakum
79371,Sudan,Lamb
78959,Waelder,Gonzales
77837,Calvert,Robertson
78379,Riviera,Kleberg
79851,Sierra Blanca,Hudspeth
76371,Munday,Knox
75929,Broaddus,San Augustine
78881,Sabinal,Uvalde
75850,Leona,Leon
77975,Moulton,Lavaca
76518,Buckholts,Milam
75487,Talco,Franklin
79744,Iraan,Pecos
76265,Saint Jo,Montague
76389,Windthorst,Archer
78205,San Antonio,Bexar
76453,Gordon,Palo Pinto
76636,Covington,Hill
76471,Rising Star,Eastland
76627,Blum,Hill
76635,Coolidge,Limestone
78151,Runge,Karnes
76853,Lometa,Lampasas
75451,Leesburg,Camp
79313,Anton,Hockley
75667,Laneville,Rusk
79248,Paducah,Cottle
76578,Thrall,Williamson
78594,Sebastian,Willacy
79084,Stratford,Sherman
79381,Wilson,Lynn
75555,Bivins,Cass
78548,Grulla,Starr
76941,Mertzon,Irion
76653,Kosse,Limestone
79372,Sundown,Hockley
76951,Sterling City,Sterling
75420,Brashear,Hopkins
76933,Bronte,Coke
79358,Ropesville,Hockley
78341,Benavides,Duval
77951,Bloomington,Victoria
78933,Cat Spring,Austin
78632,Harwood,Gonzales
78833,Camp Wood,Real
75932,Burkeville,Newton
77442,Garwood,Colorado
77660,Spurger,Tyler
79092,Vega,Oldham
79052,Kress,Swisher
78873,Leakey,Real
79057,Mclean,Gray
76626,Blooming Grove,Navarro
77482,Van Vleck,Matagorda
76472,Santo,Palo Pinto
77577,Liverpool,Brazoria
75937,Chireno,Nacogdoches
79543,Roby,Fisher
76596,Gatesville,Coryell
77873,Richards,Grimes
79351,Odonnell,Lynn
76561,Oglesby,Coryell
76673,Mount Calm,Hill
78954,Round Top,Fayette
75976,Wells,Cherokee
79370,Spur,Dickens
79312,Amherst,Lamb
78884,Utopia,Uvalde
79778,Rankin,Upton
78024,Hunt,Kerr
75926,Apple Springs,Trinity
79031,Earth,Lamb
76228,Bellevue,Clay
79502,Aspermont,Stonewall
76264,Sadler,Grayson
79042,Happy,Swisher
76690,Walnut Springs,Bosque
79250,Petersburg,Hale
78850,D Hanis,Medina
76203,Denton,Denton
79839,Fort Hancock,Hudspeth
75943,Douglass,Nacogdoches
76652,Kopperl,Bosque
79345,Meadow,Terry
75449,Ladonia,Fannin
79511,Coahoma,Howard
79529,Knox City,Knox
75556,Bloomburg,Cass
76525,Evant,Coryell
78880,Rocksprings,Edwards
75574,Simms,Bowie
77585,Saratoga,Hardin
79563,Tye,Taylor
75439,Ector,Fannin
77971,Lolita,Jackson
75435,Deport,Lamar
77533,Daisetta,Liberty
78623,Fischer,Comal
79227,Crowell,Foard
75669,Long Branch,Panola
76538,Jonesboro,Coryell
78549,Hargill,Hidalgo
79366,Ransom Canyon,Lubbock
75477,Roxton,Lamar
78742,Austin,Travis
75437,Dike,Hopkins
77853,Dime Box,Lee
78829,Batesville,Zavala
76432,Blanket,Brown
77982,Port O Connor,Calhoun
76239,Forestburg,Montague
79541,Ovalo,Taylor
79097,White Deer,Carson
75476,Ravenna,Fannin
75560,Douglassville,Cass
79789,Wink,Winkler
75928,Bon Wier,Newton
75468,Pattonville,Lamar
76679,Purdon,Navarro
75447,Ivanhoe,Fannin
77456,Markham,Matagorda
79508,Buffalo Gap,Taylor
79739,Garden City,Glasscock
76372,Newcastle,Young
76475,Strawn,Palo Pinto
76250,Lindsay,Cooke
76621,Abbott,Hill
78877,Quemado,Maverick
76427,Bryson,Jack
76486,Perrin,Jack
78872,La Pryor,Zavala
77046,Houston,Harris
78358,Fulton,Aransas
78870,Knippa,Uvalde
75936,Chester,Tyler
78946,Ledbetter,Fayette
75438,Dodd City,Fannin
76934,Carlsbad,Tom Green
75489,Tom Bean,Grayson
79848,Sanderson,Terrell
78953,Rosanky,Bastrop
75448,Klondike,Delta
78827,Asherton,Dimmit
77990,Tivoli,Refugio
75944,Etoile,Nacogdoches
77857,Gause,Milam
77613,China,Jefferson
76890,Zephyr,Brown
79225,Chillicothe,Hardeman
75550,Annona,Red River
75247,Dallas,Dallas
79526,Hermleigh,Scurry
76483,Throckmorton,Throckmorton
77538,Devers,Liberty
79244,Matador,Motley
78159,Smiley,Gonzales
77663,Village Mills,Hardin
78141,Nordheim,De Witt
79713,Ackerly,Dawson
79532,Loraine,Mitchell
75421,Brookston,Lamar
76455,Gustine,Comanche
76866,Paint Rock,Concho
75411,Arthur City,Lamar
78058,Mountain Home,Kerr
79788,Wickett,Ward
78672,Tow,Llano
75478,Saltillo,Hopkins
77419,Blessing,Matagorda
79257,Silverton,Briscoe
76070,Nemo,Somervell
76864,Mullin,Mills
77010,Houston,Harris
75488,Telephone,Fannin
78146,Pettus,Bee
77444,Guy,Fort Bend
77629,Nome,Jefferson
75853,Montalba,Anderson
75784,Reklaw,Cherokee
78349,Concepcion,Duval
79039,Groom,Carson
79547,Rule,Haskell
78935,Alleyton,Colorado
78944,Industry,Austin
78963,West Point,Fayette
75959,Milam,Sabine
78948,Lincoln,Lee
79087,Texline,Dallam
75493,Winfield,Titus
78535,Combes,Cameron
77560,Hankamer,Chambers
78351,Driscoll,Nueces
76871,Richland Springs,San Saba
78671,Stonewall,Gillespie
76251,Montague,Montague
76484,Palo Pinto,Palo Pinto
77475,Sheridan,Colorado
78663,Round Mountain,Blanco
78561,Lasara,Willacy
79010,Boys Ranch,Oldham
79046,Higgins,Lipscomb
79063,Nazareth,Castro
77623,High Island,Galveston
75101,Bardwell,Ellis
78067,San Ygnacio,Zapata
76832,Cherokee,San Saba
78117,Hobson,Karnes
75682,New London,Rusk
76660,Malone,Hill
79718,Balmorhea,Reeves
77624,Hillister,Tyler
79918,El Paso,El Paso
79367,Smyer,Hockley
76631,Bynum,Hill
75566,Marietta,Cass
79852,Terlingua,Brewster
79561,Trent,Taylor
78590,San Perlita,Willacy
78161,Sutherland Springs,Wilson
78592,Santa Maria,Cameron
76872,Rochelle,Mcculloch
75960,Moscow,Polk
76402,Stephenville,Erath
79379,Whiteface,Cochran
79054,Lefors,Gray
78949,Muldoon,Fayette
79721,Big Spring,Howard
76827,Brookesmith,Brown
78330,Agua Dulce,Nueces
77519,Batson,Hardin
76649,Iredell,Bosque
77451,Kendleton,Fort Bend
79528,Jayton,Kent
79742,Grandfalls,Ward
78066,Rio Medina,Medina
76379,Scotland,Archer
76463,Mingus,Palo Pinto
76598,Gatesville,Coryell
77878,Snook,Burleson
79059,Miami,Roberts
77974,Meyersville,De Witt
75412,Bagwell,Red River
77376,Votaw,Hardin
78057,Moore,Frio
76909,San Angelo,Tom Green
79749,Lenorah,Martin
76681,Richland,Navarro
79544,Rochester,Haskell
78419,Corpus Christi,Nueces
79506,Blackwell,Nolan
78886,Yancey,Medina
78932,Carmine,Fayette
78843,Laughlin A F B,Val Verde
76466,Olden,Eastland
78830,Big Wells,Dimmit
77614,Deweyville,Newton
75153,Powell,Navarro
79044,Hartley,Hartley
79350,New Deal,Lubbock
77978,Point Comfort,Calhoun
77991,Vanderbilt,Jackson
76077,Rainbow,Somervell
76875,Rowena,Runnels
78072,Tilden,Mcmullen
76491,Woodson,Throckmorton
77369,Rye,Liberty
79034,Follett,Lipscomb
79530,Lawn,Taylor
79255,Quitaque,Briscoe
77457,Matagorda,Matagorda
78050,Leming,Atascosa
77977,Placedo,Victoria
76357,Byers,Clay
79237,Hedley,Donley
77470,Rock Island,Colorado
79533,Lueders,Jones
75838,Donie,Freestone
79842,Marathon,Brewster
76435,Carbon,Eastland
77374,Thicket,Hardin
76370,Megargel,Archer
78027,Kendalia,Kendall
78558,La Blanca,Hidalgo
78614,Cost,Gonzales
78344,Bruni,Webb
78943,Glidden,Colorado
77597,Wallisville,Chambers
78545,Falcon Heights,Starr
77507,Pasadena,Harris
75481,Sulphur Bluff,Hopkins
79733,Forsan,Howard
76377,Petrolia,Clay
76523,Davilla,Milam
78107,Berclair,Goliad
79080,Skellytown,Carson
78004,Bergheim,Kendall
76460,Loving,Young
77415,Cedar Lane,Matagorda
79098,Wildorado,Oldham
78243,San Antonio,Bexar
78340,Bayside,Refugio
76464,Moran,Shackelford
75977,Wiergate,Newton
77970,La Ward,Jackson
77994,Westhoff,De Witt
77582,Raywood,Liberty
76041,Forreston,Ellis
76637,Cranfills Gap,Bosque
77464,Orchard,Fort Bend
77615,Evadale,Jefferson
77661,Stowell,Chambers
75780,New Summerfield,Cherokee
79018,Channing,Hartley
77466,Pattison,Waller
79016,Canyon,Randall
77863,Lyons,Burleson
78536,Delmita,Starr
78044,Laredo,Webb
79565,Westbrook,Mitchell
78339,Banquete,Nueces
76253,Myra,Cooke
79062,Morse,Hansford
75469,Pecan Gap,Delta
76566,Purmela,Coryell
75492,Windom,Fannin
78162,Tuleta,Bee
79024,Darrouzett,Lipscomb
78661,Prairie Lea,Caldwell
77483,Wadsworth,Matagorda
77431,Danciger,Brazoria
79342,Loop,Gaines
76238,Era,Cooke
78622,Fentress,Caldwell
78608,Briggs,Burnet
79719,Barstow,Ward
78353,Encino,Brooks
78567,Los Indios,Cameron
75415,Ben Franklin,Delta
79261,Turkey,Hall
79748,Knott,Howard
75450,Lake Creek,Delta
78883,Tarpley,Bandera
77655,Sabine Pass,Jefferson
76852,Lohn,Mcculloch
77867,Mumford,Robertson
79741,Goldsmith,Ector
76363,Goree,Knox
78352,Edroy,San Patricio
76854,London,Kimble
79505,Benjamin,Knox
79256,Roaring Springs,Motley
76474,Sidney,Comanche
78008,Campbellton,Atascosa
75164,Josephine,Collin
77476,Simonton,Fort Bend
79229,Dickens,Dickens
79061,Mobeetie,Wheeler
76955,Vancourt,Tom Green
78591,Santa Elena,Starr
78376,Realitos,Duval
78879,Rio Frio,Real
77616,Fred,Tyler
76858,Melvin,Mcculloch
78618,Doss,Gillespie
77367,Riverside,Walker
76845,Gouldbusk,Coleman
76061,Lillian,Johnson
76676,Penelope,Hill
79378,Wellman,Terry
76882,Talpa,Coleman
78547,Garciasville,Starr
79743,Imperial,Pecos
78122,Leesville,Gonzales
78012,Christine,Atascosa
76519,Burlington,Milam
76261,Ringgold,Montague
79377,Welch,Dawson
79003,Allison,Wheeler
76958,Water Valley,Tom Green
79834,Big Bend National Park,Brewster
76388,Weinert,Haskell
78116,Gillett,Karnes
77993,Weesatche,Goliad
78402,Corpus Christi,Nueces
76481,South Bend,Young
79527,Ira,Scurry
79539,O Brien,Haskell
77987,Sweet Home,Lavaca
76445,Desdemona,Eastland
79783,Tarzan,Martin
78342,Ben Bolt,Jim Wells
76623,Avalon,Ellis
76686,Tehuacana,Limestone
75711,Tyler,Smith
78143,Pandora,Wilson
76869,Pontotoc,Mason
75573,Redwater,Bowie
76364,Harrold,Wilbarger
75689,Selman City,Rusk
79738,Gail,Borden
75157,Rosser,Kaufman
78675,Willow City,Gillespie
75764,Gallatin,Cherokee
75105,Chatfield,Navarro
75565,Mc Leod,Cass
78712,Austin,Travis
78635,Hye,Blanco
78007,Calliham,Mcmullen
76828,Burkett,Coleman
75470,Petty,Lamar
